AZERSPACE 1             
1 39079U 13006B   24238.13943434  .00000124  00000+0  00000+0 0  9993
2 39079   0.0389 285.9450 0001673 262.6085 241.5125  1.00273182 42302
SBIRS GEO-2 (USA 241)   
1 39120U 13011A   24237.76510272 -.00000265  00000+0  00000+0 0  9991
2 39120   3.1088  48.2376 0001634 113.1012  49.6177  1.00271342 41908
EUTELSAT 117 WEST A     
1 39122U 13012A   24237.89238247 -.00000021  00000+0  00000+0 0  9997
2 39122   0.0560 297.6104 0002891 221.9199  18.5679  1.00270758 41801
ANIK G1                 
1 39127U 13014A   24237.67978619 -.00000082  00000+0  00000+0 0  9991
2 39127   0.0402 295.1751 0002228 265.8209 269.8653  1.00271597 41620
ZHONGXING-11            
1 39157U 13020A   24237.88231343 -.00000299  00000+0  00000+0 0  9990
2 39157   0.0284 248.3341 0001994  46.6135  94.2435  1.00270710 41262
EUTELSAT 7B             
1 39163U 13022A   24237.87132925  .00000040  00000+0  00000+0 0  9997
2 39163   0.0686 357.0799 0001421  49.6867 247.5292  1.00272776 41325
WGS F5 (USA 243)        
1 39168U 13024A   24236.40277605 -.00000292  00000+0  00000+0 0  9997
2 39168   0.0080 132.1815 0000348  75.2975 217.1985  1.00271498 40524
SES-6                   
1 39172U 13026A   24238.19186765 -.00000270  00000+0  00000+0 0  9994
2 39172   0.0385 325.2170 0001925 189.8639 207.4121  1.00269273 41092
IRNSS-1A                
1 39199U 13034A   24237.64034249  .00000066  00000+0  00000+0 0  9992
2 39199  34.2292  73.4446 0020472 177.1015   8.5065  1.00271359 40736
MUOS-2                  
1 39206U 13036A   24237.73738787  .00000056  00000+0  00000+0 0  9990
2 39206   3.7401  41.4389 0054548 176.4099 204.0819  1.00270441 40566
ALPHASAT                
1 39215U 13038A   24237.63452150  .00000126  00000+0  00000+0 0  9996
2 39215   2.8985   6.9917 0003403 174.5685  45.1075  1.00271111 37389
INSAT-3D                
1 39216U 13038B   24237.88174605 -.00000348  00000+0  00000+0 0  9997
2 39216   0.2079  93.9305 0001478 113.3941 213.3114  1.00271321 40446
WGS F6 (USA 244)        
1 39222U 13041A   24237.23162218  .00000081  00000+0  00000+0 0  9997
2 39222   0.0066 148.9805 0000478 101.4807  30.6937  1.00271377 39410
ES'HAIL 1               
1 39233U 13044A   24237.94077338  .00000135  00000+0  00000+0 0  9998
2 39233   0.0535  12.8935 0002176 151.9310 173.0477  1.00274610 39999
GSAT-7                  
1 39234U 13044B   24234.09355019 -.00000085  00000+0  00000+0 0  9992
2 39234   0.0550  92.0773 0007027 166.4005 179.0833  1.00271245 38654
AMOS-4                  
1 39237U 13045A   24237.91854852 -.00000002  00000+0  00000+0 0  9998
2 39237   0.0323 237.5534 0000606 310.5674 181.2351  1.00272744 40328
AEHF-3 (USA 246)        
1 39256U 13050A   24237.74173191  .00000124  00000+0  00000+0 0  9990
2 39256   3.6456  72.4211 0049653 177.0757 195.9406  1.00270314 39047
ASTRA 2E                
1 39285U 13056A   24237.94077338  .00000142  00000+0  00000+0 0  9996
2 39285   0.0593  11.8056 0002694 145.8269 183.2297  1.00275900 39797
FM-6                    
1 39360U 13058A   24236.67658185 -.00000025  00000+0  00000+0 0  9997
2 39360   0.0092 104.0266 0000479 290.2087  65.6250  1.00273016 39423
RADUGA-1M 3             
1 39375U 13062A   24237.88407411  .00000145  00000+0  00000+0 0  9998
2 39375   4.2668  80.4144 0004116 264.6918 341.7634  1.00270732 39499
SES-8                   
1 39460U 13071A   24237.88046890 -.00000278  00000+0  00000+0 0  9991
2 39460   0.0562 275.7350 0002293 216.8242 253.0357  1.00271134 37797
INMARSAT 5-F1           
1 39476U 13073A   24237.77569685  .00000020  00000+0  00000+0 0  9994
2 39476   0.0184 108.4030 0000450 110.4401  96.5271  1.00269692 38950
TKSAT-1 (TUPAC KATARI)  
1 39481U 13075A   24237.38436826 -.00000202  00000+0  00000+0 0  9992
2 39481   0.0194 104.8167 0002479  53.3825 226.0973  1.00269758 38958
EXPRESS-AM5             
1 39487U 13077A   24237.88174605 -.00000289  00000+0  00000+0 0  9994
2 39487   0.0147 146.1112 0000492 101.7253 183.2575  1.00272184 39722
GSAT-14                 
1 39498U 14001A   24237.35806698 -.00000085  00000+0  00000+0 0  9994
2 39498   0.0898 266.0650 0004127 320.0241 309.9333  1.00271111 38758
THAICOM 6               
1 39500U 14002A   24237.87827358 -.00000130  00000+0  00000+0 0  9993
2 39500   0.0222 146.4345 0003996  24.5486 197.3162  1.00271298 38828
TDRS 12                 
1 39504U 14004A   24237.88290104 -.00000277  00000+0  00000+0 0  9995
2 39504   3.5617   5.0175 0004951 201.9644  43.5348  1.00276705 37643
ABS-2                   
1 39508U 14006A   24238.14910455 -.00000095  00000+0  00000+0 0  9997
2 39508   0.0438 294.6046 0004111 234.2240 293.6557  1.00271790 38697
ATHENA-FIDUS            
1 39509U 14006B   24237.84216187  .00000145  00000+0  00000+0 0  9990
2 39509   0.0085 158.3300 0001548  24.2887 131.9350  1.00271524 38443
TURKSAT 4A              
1 39522U 14007A   24237.89007869  .00000137  00000+0  00000+0 0  9997
2 39522   0.0582 269.9485 0002960 297.2441 128.8305  1.00272242 38342
EXPRESS-AT1             
1 39612U 14010A   24238.14143259  .00000070  00000+0  00000+0 0  9990
2 39612   0.0231 242.5363 0000424 210.1543 348.1040  1.00273431 38428
EXPRESS-AT2             
1 39613U 14010B   24237.00882723 -.00000290  00000+0  00000+0 0  9996
2 39613   0.0150 134.7085 0000191  90.9813 250.1101  1.00269370 37861
AMAZONAS 4A             
1 39616U 14011A   24237.90104122 -.00000261  00000+0  00000+0 0  9997
2 39616   0.0593 201.1576 0003663 329.6477  53.2259  1.00271587 38077
ASTRA 5B                
1 39617U 14011B   24237.87488119  .00000128  00000+0  00000+0 0  9996
2 39617   0.0791 301.3989 0002612 237.6502 133.0156  1.00271310 38032
IRNSS-1B                
1 39635U 14017A   24237.64034249  .00000117  00000+0  00000+0 0  9996
2 39635  28.8565 251.6646 0020914 189.7097 177.4845  1.00271753 38169
LUCH-5V                 
1 39727U 14023A   24238.07751507 -.00000278  00000+0  00000+0 0  9995
2 39727   3.4662  75.5259 0002994 128.8647 252.0292  1.00275270555881
KAZSAT-3                
1 39728U 14023B   24237.14043164  .00000051  00000+0  00000+0 0  9994
2 39728   0.0114 120.0606 0000161 137.9027 184.0060  1.00279891 35801
EUTELSAT 3B             
1 39773U 14030A   24237.87132925  .00000011  00000+0  00000+0 0  9992
2 39773   0.0645 347.9531 0004695 178.8396 123.5917  1.00270546 37434
ASIASAT 8 (AMOS-7)      
1 40107U 14046A   24238.14910509 -.00000043  00000+0  00000+0 0  9991
2 40107   0.0554 302.6543 0001736 209.4930 231.5157  1.00271534 36876
ASIASAT 6               
1 40141U 14052A   24237.89285486 -.00000371  00000+0  00000+0 0  9990
2 40141   0.0433 291.7700 0000863 243.0559 240.1488  1.00272548 36435
OPTUS 10                
1 40146U 14054A   24236.19979725 -.00000155  00000+0  00000+0 0  9995
2 40146   0.0919  22.9784 0003310 152.9025  24.0223  1.00271035 36381
MEASAT-3B               
1 40147U 14054B   24238.07664627 -.00000250  00000+0  00000+0 0  9993
2 40147   0.0363  42.5769 0001510  79.8062 330.5385  1.00271207 36547
LUCH (OLYMP-K 1)        
1 40258U 14058A   24237.76901234 -.00000149  00000+0  00000+0 0  9990
2 40258   0.1885  91.2233 0001824 294.7953 206.2759  1.00274184 34361
HIMAWARI-8              
1 40267U 14060A   24236.40218513 -.00000284  00000+0  00000+0 0  9994
2 40267   0.0461 262.6254 0001011 297.9595  57.0096  1.00268138 36115
IRNSS-1C                
1 40269U 14061A   24237.84064631 -.00000172  00000+0  00000+0 0  9992
2 40269   4.8370 103.0420 0020729  12.9987 243.2398  1.00271940 36050
INTELSAT 30 (IS-30)     
1 40271U 14062A   24235.30743852 -.00000160  00000+0  00000+0 0  9991
2 40271   0.0203 102.3222 0001988 276.1830 328.2148  1.00280781 36101
ARSAT 1                 
1 40272U 14062B   24236.39921396 -.00000267  00000+0  00000+0 0  9991
2 40272   0.0168  86.7401 0001746  81.7679 235.5720  1.00268345 35960
EXPRESS-AM6             
1 40277U 14064A   24237.65439505  .00000089  00000+0  00000+0 0  9995
2 40277   0.0209 117.0416 0001063  59.9270  85.0223  1.00271956 34946
GSAT-16                 
1 40332U 14078A   24235.20839829  .00000077  00000+0  00000+0 0  9991
2 40332   0.0491 270.8238 0006744 190.3743 359.8769  1.00270784 35459
DIRECTV 14              
1 40333U 14078B   24237.60984748 -.00000133  00000+0  00000+0 0  9993
2 40333   0.0287 270.7836 0000140 165.0333  17.8569  1.00270457 35427
YAMAL 401               
1 40345U 14082A   24237.14668704 -.00000237  00000+0  00000+0 0  9996
2 40345   0.0095 117.9970 0000553 116.8399 240.8213  1.00272658 35285
ASTRA 2G                
1 40364U 14089A   24237.94077338  .00000141  00000+0  00000+0 0  9992
2 40364   0.0490 335.2953 0002971 120.6292 244.6122  1.00272948 35331
FENGYUN 2G              
1 40367U 14090A   24237.88274385 -.00000308  00000+0  00000+0 0  9997
2 40367   3.9621  80.7309 0003627 143.4261 166.4970  1.00261918 35367
MUOS-3                  
1 40374U 15002A   24237.76962050 -.00000136  00000+0  00000+0 0  9998
2 40374   3.3429  36.5098 0059439 176.3440  22.2357  1.00272988 34956
INMARSAT 5-F2           
1 40384U 15005A   24237.76171439 -.00000294  00000+0  00000+0 0  9990
2 40384   0.0182 127.6098 0000537 114.1223 310.9858  1.00271299 34365
ABS-3A                  
1 40424U 15010A   24237.62896116 -.00000035  00000+0  00000+0 0  9995
2 40424   0.0152 108.9567 0001259 321.1265 126.6992  1.00270423 34749
EUTELSAT 115 WEST B     
1 40425U 15010B   24237.33454847 -.00000033  00000+0  00000+0 0  9993
2 40425   0.0026 197.5928 0000374 150.0615 350.9780  1.00271905 34798
EXPRESS-AM7             
1 40505U 15012A   24237.89007869  .00000142  00000+0  00000+0 0  9993
2 40505   0.0179 121.6607 0002361  37.3573 175.0379  1.00269436 34376
IRNSS-1D                
1 40547U 15018A   24236.46716209 -.00000277  00000+0  00000+0 0  9992
2 40547  27.3560 251.5395 0020159 195.6899 164.9435  1.00275130 34344
